{"fetched_at":"2026-07-22T07:09:20.374Z","source":"https://celestrak.org/NORAD/elements/gp.php?GROUP=kuiper&FORMAT=JSON","constellation":"kuiper","records":[{"OBJECT_NAME":"KUIPER-00408","OBJECT_ID":"2026-098F","EPOCH":"2026-07-21T14:24:15.768864","CLASSIFICATION_TYPE":"U","MEAN_MOTION":15.25266626,"ECCENTRICITY":0.00131249,"INCLINATION":51.8731,"RA_OF_ASC_NODE":265.5436,"ARG_OF_PERICENTER":280.9517,"MEAN_ANOMALY":78.9987,"EPHEMERIS_TYPE":0,"NORAD_CAT_ID":68924,"ELEMENT_SET_NO":999,"REV_AT_EPOCH":1258,"BSTAR":0.000081983146,"MEAN_MOTION_DOT":0.00001748,"MEAN_MOTION_DDOT":0},{"OBJECT_NAME":"KUIPER-00409","OBJECT_ID":"2026-098G","EPOCH":"2026-07-21T14:00:01.999872","CLASSIFICATION_TYPE":"U","MEAN_MOTION":14.931152,"ECCENTRICITY":0.00055081,"INCLINATION":51.8955,"RA_OF_ASC_NODE":266.2667,"ARG_OF_PERICENTER":297.7819,"MEAN_ANOMALY":284.0078,"EPHEMERIS_TYPE":0,"NORAD_CAT_ID":68925,"ELEMENT_SET_NO":999,"REV_AT_EPOCH":442,"BSTAR":0.0011798683,"MEAN_MOTION_DOT":0.00012203,"MEAN_MOTION_DDOT":0},{"OBJECT_NAME":"KUIPER-00410","OBJECT_ID":"2026-098H","EPOCH":"2026-07-21T14:00:01.999872","CLASSIFICATION_TYPE":"U","MEAN_MOTION":15.15346323,"ECCENTRICITY":0.00138723,"INCLINATION":51.88,"RA_OF_ASC_NODE":265.7454,"ARG_OF_PERICENTER":275.1868,"MEAN_ANOMALY":302.1838,"EPHEMERIS_TYPE":0,"NORAD_CAT_ID":68926,"ELEMENT_SET_NO":999,"REV_AT_EPOCH":438,"BSTAR":-0.094810719,"MEAN_MOTION_DOT":-0.01645167,"MEAN_MOTION_DDOT":0},{"OBJECT_NAME":"KUIPER-00412","OBJECT_ID":"2026-098J","EPOCH":"2026-07-21T14:00:01.999872","CLASSIFICATION_TYPE":"U","MEAN_MOTION":15.34618703,"ECCENTRICITY":0.00037254,"INCLINATION":51.8784,"RA_OF_ASC_NODE":261.0204,"ARG_OF_PERICENTER":25.6209,"MEAN_ANOMALY":359.5161,"EPHEMERIS_TYPE":0,"NORAD_CAT_ID":68927,"ELEMENT_SET_NO":999,"REV_AT_EPOCH":322,"BSTAR":-0.01786558,"MEAN_MOTION_DOT":-0.00565488,"MEAN_MOTION_DDOT":0},{"OBJECT_NAME":"KUIPER-00413","OBJECT_ID":"2026-098K","EPOCH":"2026-07-21T14:00:01.999872","CLASSIFICATION_TYPE":"U","MEAN_MOTION":14.88277029,"ECCENTRICITY":0.00208939,"INCLINATION":51.8979,"RA_OF_ASC_NODE":268.7484,"ARG_OF_PERICENTER":288.5747,"MEAN_ANOMALY":204.8834,"EPHEMERIS_TYPE":0,"NORAD_CAT_ID":68928,"ELEMENT_SET_NO":999,"REV_AT_EPOCH":413,"BSTAR":0.00040509484,"MEAN_MOTION_DOT":0.00003554,"MEAN_MOTION_DDOT":0},{"OBJECT_NAME":"KUIPER-00414","OBJECT_ID":"2026-098L","EPOCH":"2026-07-21T11:54:03.372768","CLASSIFICATION_TYPE":"U","MEAN_MOTION":14.79945919,"ECCENTRICITY":0.00013682,"INCLINATION":51.898,"RA_OF_ASC_NODE":279.0435,"ARG_OF_PERICENTER":298.4332,"MEAN_ANOMALY":61.6492,"EPHEMERIS_TYPE":0,"NORAD_CAT_ID":68929,"ELEMENT_SET_NO":999,"REV_AT_EPOCH":1238,"BSTAR":0.00028269779,"MEAN_MOTION_DOT":0.00001935,"MEAN_MOTION_DDOT":0},{"OBJECT_NAME":"KUIPER-00415","OBJECT_ID":"2026-098M","EPOCH":"2026-07-21T14:00:01.999872","CLASSIFICATION_TYPE":"U","MEAN_MOTION":15.19201814,"ECCENTRICITY":0.00076767,"INCLINATION":51.8856,"RA_OF_ASC_NODE":264.0203,"ARG_OF_PERICENTER":264.7247,"MEAN_ANOMALY":75.1499,"EPHEMERIS_TYPE":0,"NORAD_CAT_ID":68930,"ELEMENT_SET_NO":999,"REV_AT_EPOCH":567,"BSTAR":-0.05910104,"MEAN_MOTION_DOT":-0.01162825,"MEAN_MOTION_DDOT":0},{"OBJECT_NAME":"KUIPER-00416","OBJECT_ID":"2026-098N","EPOCH":"2026-07-21T13:35:29.859648","CLASSIFICATION_TYPE":"U","MEAN_MOTION":15.37605703,"ECCENTRICITY":0.00017746,"INCLINATION":51.8742,"RA_OF_ASC_NODE":260.9386,"ARG_OF_PERICENTER":6.7729,"MEAN_ANOMALY":353.3282,"EPHEMERIS_TYPE":0,"NORAD_CAT_ID":68931,"ELEMENT_SET_NO":999,"REV_AT_EPOCH":1264,"BSTAR":0.00035759756,"MEAN_MOTION_DOT":0.00013037,"MEAN_MOTION_DDOT":0},{"OBJECT_NAME":"KUIPER-00420","OBJECT_ID":"2026-098P","EPOCH":"2026-07-21T11:44:31.246656","CLASSIFICATION_TYPE":"U","MEAN_MOTION":15.36845298,"ECCENTRICITY":0.00040914,"INCLINATION":51.8771,"RA_OF_ASC_NODE":261.9265,"ARG_OF_PERICENTER":341.0126,"MEAN_ANOMALY":19.0708,"EPHEMERIS_TYPE":0,"NORAD_CAT_ID":68932,"ELEMENT_SET_NO":999,"REV_AT_EPOCH":1262,"BSTAR":0.00046508276,"MEAN_MOTION_DOT":0.00016662,"MEAN_MOTION_DDOT":0},{"OBJECT_NAME":"KUIPER-00421","OBJECT_ID":"2026-098Q","EPOCH":"2026-07-21T11:26:31.711488","CLASSIFICATION_TYPE":"U","MEAN_MOTION":15.29754611,"ECCENTRICITY":0.00073215,"INCLINATION":51.8772,"RA_OF_ASC_NODE":264.0354,"ARG_OF_PERICENTER":273.693,"MEAN_ANOMALY":86.3216,"EPHEMERIS_TYPE":0,"NORAD_CAT_ID":68933,"ELEMENT_SET_NO":999,"REV_AT_EPOCH":1259,"BSTAR":0.0004495517,"MEAN_MOTION_DOT":0.00012815,"MEAN_MOTION_DDOT":0},{"OBJECT_NAME":"KUIPER-00425","OBJECT_ID":"2026-098R","EPOCH":"2026-07-21T14:00:01.999872","CLASSIFICATION_TYPE":"U","MEAN_MOTION":14.99607725,"ECCENTRICITY":0.00119709,"INCLINATION":51.8972,"RA_OF_ASC_NODE":266.858,"ARG_OF_PERICENTER":274.317,"MEAN_ANOMALY":81.6092,"EPHEMERIS_TYPE":0,"NORAD_CAT_ID":68934,"ELEMENT_SET_NO":999,"REV_AT_EPOCH":587,"BSTAR":-0.037612561,"MEAN_MOTION_DOT":-0.00441053,"MEAN_MOTION_DDOT":0},{"OBJECT_NAME":"KUIPER-00430","OBJECT_ID":"2026-098S","EPOCH":"2026-07-21T14:00:01.999872","CLASSIFICATION_TYPE":"U","MEAN_MOTION":14.88127016,"ECCENTRICITY":0.00177511,"INCLINATION":51.8975,"RA_OF_ASC_NODE":268.6092,"ARG_OF_PERICENTER":285.3145,"MEAN_ANOMALY":26.7537,"EPHEMERIS_TYPE":0,"NORAD_CAT_ID":68935,"ELEMENT_SET_NO":999,"REV_AT_EPOCH":467,"BSTAR":0.0013061215,"MEAN_MOTION_DOT":0.00011959,"MEAN_MOTION_DDOT":0},{"OBJECT_NAME":"KUIPER-00431","OBJECT_ID":"2026-098T","EPOCH":"2026-07-21T14:00:01.999872","CLASSIFICATION_TYPE":"U","MEAN_MOTION":14.79839034,"ECCENTRICITY":0.00007836,"INCLINATION":51.898,"RA_OF_ASC_NODE":271.0593,"ARG_OF_PERICENTER":351.5155,"MEAN_ANOMALY":71.3152,"EPHEMERIS_TYPE":0,"NORAD_CAT_ID":68936,"ELEMENT_SET_NO":999,"REV_AT_EPOCH":533,"BSTAR":0.0066736791,"MEAN_MOTION_DOT":0.00050927,"MEAN_MOTION_DDOT":0},{"OBJECT_NAME":"KUIPER-00432","OBJECT_ID":"2026-098U","EPOCH":"2026-07-21T14:00:01.999872","CLASSIFICATION_TYPE":"U","MEAN_MOTION":15.12874758,"ECCENTRICITY":0.00113048,"INCLINATION":51.878,"RA_OF_ASC_NODE":265.2702,"ARG_OF_PERICENTER":273.897,"MEAN_ANOMALY":195.7292,"EPHEMERIS_TYPE":0,"NORAD_CAT_ID":68937,"ELEMENT_SET_NO":999,"REV_AT_EPOCH":446,"BSTAR":-0.12614471,"MEAN_MOTION_DOT":-0.0202784,"MEAN_MOTION_DDOT":0},{"OBJECT_NAME":"KUIPER-00434","OBJECT_ID":"2026-098V","EPOCH":"2026-07-21T14:00:01.999872","CLASSIFICATION_TYPE":"U","MEAN_MOTION":14.88508817,"ECCENTRICITY":0.00009334,"INCLINATION":51.8964,"RA_OF_ASC_NODE":266.3781,"ARG_OF_PERICENTER":161.6985,"MEAN_ANOMALY":167.2812,"EPHEMERIS_TYPE":0,"NORAD_CAT_ID":68938,"ELEMENT_SET_NO":999,"REV_AT_EPOCH":435,"BSTAR":0.0010796691,"MEAN_MOTION_DOT":0.00009911,"MEAN_MOTION_DDOT":0},{"OBJECT_NAME":"KUIPER-00436","OBJECT_ID":"2026-098W","EPOCH":"2026-07-21T14:00:01.999872","CLASSIFICATION_TYPE":"U","MEAN_MOTION":14.93891275,"ECCENTRICITY":0.00075781,"INCLINATION":51.8922,"RA_OF_ASC_NODE":266.4762,"ARG_OF_PERICENTER":283.4894,"MEAN_ANOMALY":330.5129,"EPHEMERIS_TYPE":0,"NORAD_CAT_ID":68939,"ELEMENT_SET_NO":999,"REV_AT_EPOCH":332,"BSTAR":0.0016707655,"MEAN_MOTION_DOT":0.00017751,"MEAN_MOTION_DDOT":0}]}
