{"epoch":1784710044,"count":18256,"objects":[{"id":"68924","name":"KUIPER-00408","type":"PAYLOAD","l1":"1 68924U 26098F   26202.60018251  .00001748  00000-0  81983-4 0  9992","l2":"2 68924  51.8731 265.5436 0013125 280.9517  78.9987 15.25266626 12586"},{"id":"68925","name":"KUIPER-00409","type":"PAYLOAD","l1":"1 68925U 26098G   26202.58335648  .00012203  00000-0  11799-2 0  9996","l2":"2 68925  51.8955 266.2667 0005508 297.7819 284.0078 14.93115200  4426"},{"id":"68926","name":"KUIPER-00410","type":"PAYLOAD","l1":"1 68926U 26098H   26202.58335648 -.01645167  00000-0 -94811-1 0  9996","l2":"2 68926  51.8800 265.7454 0013872 275.1868 302.1838 15.15346323  4389"},{"id":"68927","name":"KUIPER-00412","type":"PAYLOAD","l1":"1 68927U 26098J   26202.58335648 -.00565488  00000-0 -17866-1 0  9998","l2":"2 68927  51.8784 261.0204 0003725  25.6209 359.5161 15.34618703  3228"},{"id":"68928","name":"KUIPER-00413","type":"PAYLOAD","l1":"1 68928U 26098K   26202.58335648  .00003554  00000-0  40509-3 0  9990","l2":"2 68928  51.8979 268.7484 0020894 288.5747 204.8834 14.88277029  4132"},{"id":"68929","name":"KUIPER-00414","type":"PAYLOAD","l1":"1 68929U 26098L   26202.49587237  .00001935  00000-0  28270-3 0  9996","l2":"2 68929  51.8980 279.0435 0001368 298.4332  61.6492 14.79945919 12386"},{"id":"68930","name":"KUIPER-00415","type":"PAYLOAD","l1":"1 68930U 26098M   26202.58335648 -.01162825  00000-0 -59101-1 0  9999","l2":"2 68930  51.8856 264.0203 0007677 264.7247  75.1499 15.19201814  5672"},{"id":"68931","name":"KUIPER-00416","type":"PAYLOAD","l1":"1 68931U 26098N   26202.56631782  .00013037  00000-0  35760-3 0  9990","l2":"2 68931  51.8742 260.9386 0001775   6.7729 353.3282 15.37605703 12647"},{"id":"68932","name":"KUIPER-00420","type":"PAYLOAD","l1":"1 68932U 26098P   26202.48925054  .00016662  00000-0  46508-3 0  9999","l2":"2 68932  51.8771 261.9265 0004091 341.0126  19.0708 15.36845298 12628"},{"id":"68933","name":"KUIPER-00421","type":"PAYLOAD","l1":"1 68933U 26098Q   26202.47675592  .00012815  00000-0  44955-3 0  9998","l2":"2 68933  51.8772 264.0354 0007322 273.6930  86.3216 15.29754611 12593"},{"id":"68934","name":"KUIPER-00425","type":"PAYLOAD","l1":"1 68934U 26098R   26202.58335648 -.00441053  00000-0 -37613-1 0  9999","l2":"2 68934  51.8972 266.8580 0011971 274.3170  81.6092 14.99607725  5878"},{"id":"68935","name":"KUIPER-00430","type":"PAYLOAD","l1":"1 68935U 26098S   26202.58335648  .00011959  00000-0  13061-2 0  9998","l2":"2 68935  51.8975 268.6092 0017751 285.3145  26.7537 14.88127016  4675"},{"id":"68936","name":"KUIPER-00431","type":"PAYLOAD","l1":"1 68936U 26098T   26202.58335648  .00050927  00000-0  66737-2 0  9995","l2":"2 68936  51.8980 271.0593 0000784 351.5155  71.3152 14.79839034  5334"},{"id":"68937","name":"KUIPER-00432","type":"PAYLOAD","l1":"1 68937U 26098U   26202.58335648 -.02027840  00000-0 -12614+0 0  9990","l2":"2 68937  51.8780 265.2702 0011305 273.8970 195.7292 15.12874758  4461"},{"id":"68938","name":"KUIPER-00434","type":"PAYLOAD","l1":"1 68938U 26098V   26202.58335648  .00009911  00000-0  10797-2 0  9999","l2":"2 68938  51.8964 266.3781 0000933 161.6985 167.2812 14.88508817  4352"},{"id":"68939","name":"KUIPER-00436","type":"PAYLOAD","l1":"1 68939U 26098W   26202.58335648  .00017751  00000-0  16708-2 0  9999","l2":"2 68939  51.8922 266.4762 0007578 283.4894 330.5129 14.93891275  3322"}]}